H1 CPF 01  gfz 2022 10 16 12  7892 terrasarx 
H2 0702601  6201 31698    2022 10 16 12 59 42 2022 10 21 00 00 42   120 1 1  0 0 0
H9
10 0 59872  82062.000000  0   -1235793.331   5396048.061  -4108022.925
10 0 59872  82182.000000  0    -920129.229   4868995.346  -4793014.565
10 0 59872  82302.000000  0    -598482.236   4251728.357  -5394098.545
10 0 59872  82422.000000  0    -277938.684   3555011.018  -5900848.537
10 0 59872  82542.000000  0      34647.434   2791079.664  -6304498.651
10 0 59872  82662.000000  0     332795.502   1973421.827  -6598083.114
10 0 59872  82782.000000  0     610527.156   1116537.373  -6776545.358
10 0 59872  82902.000000  0     862481.814    235683.215  -6836816.624
10 0 59872  83022.000000  0    1084016.623   -653393.903  -6777862.748
10 0 59872  83142.000000  0    1271289.234  -1534733.019  -6600698.618
10 0 59872  83262.000000  0    1421322.704  -2392437.286  -6308371.725
10 0 59872  83382.000000  0    1532052.725  -3210953.539  -5905916.800
10 0 59872  83502.000000  0    1602355.379  -3975351.897  -5400279.710
10 0 59872  83622.000000  0    1632054.740  -4671599.149  -4800207.288
10 0 59872  83742.000000  0    1621911.244  -5286818.342  -4116106.616
10 0 59872  83862.000000  0    1573589.866  -5809534.241  -3359875.838
10 0 59872  83982.000000  0    1489607.649  -6229897.675  -2544704.814
10 0 59872  84102.000000  0    1373263.109  -6539882.445  -1684849.362
10 0 59872  84222.000000  0    1228548.427  -6733450.325   -795382.547
10 0 59872  84342.000000  0    1060044.640  -6806679.576    108072.777
10 0 59872  84462.000000  0     872804.677  -6757851.623   1009624.628
10 0 59872  84582.000000  0     672225.427  -6587494.787   1893399.314
10 0 59872  84702.000000  0     463913.213  -6298382.628   2743831.017
10 0 59872  84822.000000  0     253545.121  -5895485.001   3545945.390
10 0 59872  84942.000000  0      46729.461  -5385874.834   4285628.585
10 0 59872  85062.000000  0    -151129.750  -4778595.771   4949878.525
10 0 59872  85182.000000  0    -334961.405  -4084491.551   5527034.196
10 0 59872  85302.000000  0    -500145.629  -3316002.696   6006978.561
10 0 59872  85422.000000  0    -642619.889  -2486933.449   6381311.474
10 0 59872  85542.000000  0    -758970.576  -1612197.533   6643488.624
10 0 59872  85662.000000  0    -846508.418   -707547.814   6788929.975
10 0 59872  85782.000000  0    -903326.894    210708.818   6815096.175
10 0 59872  85902.000000  0    -928342.204   1126005.738   6721530.206
10 0 59872  86022.000000  0    -921313.315   2021814.995   6509864.709
10 0 59872  86142.000000  0    -882842.655   2881945.149   6183795.215
10 0 59872  86262.000000  0    -814357.845   3690834.406   5749019.906
10 0 59872  86382.000000  0    -718074.346   4433834.838   5213145.185
99
